COMPANY NAME,ADDRESS,STATE,ZIP,COUNTRY
13th Beach,10 Rainbow Beach Rd  RainbowBeach,Queensland ,4581,Australia
218 Degrees,200 Campbell St  Swan Hill,Victoria ,3585,Australia
3 Stories,Shop 105 High Street  Fremantle,Western Australia ,6160,Australia
42 South,182 Scamander Ave  Scamander,Tasmania ,7215,Australia
Accurate Clothing,124 Gray Street  Hamilton,Victoria  ,3300,Australia
Adrift,133 The Entrance Rd  The Entrance,New South Wales ,2261,Australia
Airlie Beach Worx,271 Shute Harbour Rd  Airlie Beach,Queensland ,4802,Australia
Albany Surf &amp; Skate,278b York Street,Albany,6330,Australia
Alex Surf,188 Alexandra Parade, Alexandra Parade,4572,Australia
Aloha Surf Style,44 PittWater Rd  Manly,New South Wales  ,2095,Australia
Alpine Beach,177 The Entrance Rd,Erina,2250,Australia
Anglesea Surf Centre,143 Ocean Road,Anglesea,3230,Australia
Anna Bay Surf,150 Gan Gan Rd  Anna Bay,New South Wales ,2316,Australia
Apollo Bay Surf Shop,91 Great Ocean Rd  ApolloBay,Victoria ,3233,Australia
Aquatique Pty.Ltd.,125/127 Junction Street  Nowra,New South Wales  ,2541,Australia
Arena Sport Store,78 Commerical St East  Mt.Gambier,South Australia ,5290,Australia
Australian Surfer HQ,63 The Corso  Manly,New South Wales ,2095,Australia
B.Ware,99- 101 Queen St  Busselton,Western Australia ,6280,Australia
Baines Beach Clothing,15- 16 Baines Crs  Torquay,Victoria ,3228,Australia
Ballarat Skin Ski &amp; Surf,94 Bridge Mall  Ballarat,Victoria  ,3350,Australia
Balmoral Boards Narrabeen,1228 Pittwater Rd  Narrabeen,New South Wales ,2101,Australia
Bay Surf Shop,2 Pendrigh Pl St  Helens,Tasmania ,7216,Australia
Be Kirvi Surf,27 Moreton Tce   Dongara,Western Australia ,6525,Australia
Beach Beat,34 King EdWard St  Ulverstone,Tasmania ,7315,Australia
Beach Culture Cairns,Cairns Domestic Airport  Aeroglen,Queensland ,4870,Australia
Beach Store,4 Jonson St  Byron Bay,New South Wales ,2481,Australia
Beach Town Surf Centre,3/605 Ocean Drive  NorthHaven,New South Wales  ,2443,Australia
Beach Without Sand,2 North Avalon Rd,North Avalon,2107,Australia
Beach-Town Surf Centre,605 Ocean Drv  NorthHaven,New South Wales ,2443,Australia
Beachbeat Surfshops,164 Alexandra Pde  Alexandra Headland,Queensland ,4572,Australia
Beaches Apparel,Centro Colonanades  Noalunga,South Australia  ,5168,Australia
Beachin Surf,262 Main Rd   Toukley,New South Wales ,2263,Australia
Beachlife Surf Shop,Shop 3 121 Bussell Hwy  Margaret River,Western Australia  ,6285,Australia
Beard P.E.  Townsville,386 Flinders St P.O Box 1460  Townsville,Queensland  ,4810,Australia
Belconnen Ski 'n' Board,25-35 Lathlain St  Belconnen,Australian Capital Territory ,2617,Australia
Bendigo Skin Ski Surf,363 Hargraeves St   Bendigo,Victoria ,3550,Australia
Bermagui Surf Shop,4/28 Lamont St  Bermagui,New South Wales ,2546,Australia
Beyond The Beach Surf Co,Shop 1 46 Owen St  Huskisson,New South Wales ,2540,Australia
Bicknells Sports Centre Pty Ltd,46 Williamson St  Bendigo,Victoria ,3550,Australia
Big Surf Australia,Main Rd  Middleton,South Australia ,5213,Australia
Black Rock Surfwear,5 Ferguson St  Underwood,Queensland ,4119,Australia
Blackwall,1 / 30 Jarrad Street  Cottesloe,Western Australia ,6011,Australia
BlueWater,140 Russell St  Morley,Western Australia ,6062,Australia
Blunt Skateboarding &amp; Surf Co,Shop 2 Surf City Plaza,Surf Coast Hwy  Torquay,3228,Australia
Board Culture,2438 Gold Coast Hwy  MermaidBeach,Queensland ,4218,Australia
Board Room Surf Shop,2084 Gold Coast Hwy  Miami,Queensland ,4220,Australia
Boarderline,421 The Entrance Rd  LongJetty,New South Wales ,2261,Australia
Boardworx,Shop 52 Waverley Gardens Shopping Centre   Mulgrave,Victoria  ,3170,Australia
Bobbie McGees - NSW,176 Summer Stree  Orange,New South Wales ,2800,Australia
Bobbysurf,29 Perrin Street  Robinvale,Victoria ,3549,Australia
Bombora Surf Shop,112 Vincent St  Cessnock,New South Wales ,2325,Australia
Boomerang Beach Surf Co,Shop 8 Boomerang Drv  Pacific Palms,New South Wales ,2428,Australia
Bounty Shop,11 Thompson St  Frankston,Victoria  ,3199,Australia
Breakaway Surf Co,Heritage Mall  Maitland,New South Wales ,2320,Australia
Bright Ski Centre,22 Ireland St  Bright,Victoria  ,3741,Australia
Brunswick Surf,1/12 The Terrace  Brunswick Heads,New South Wales ,2483,Australia
Bumps Snow Surf Skate,481 Glenhuntly Rd  Elsternwick,Victoria ,3185,Australia
Burford Reinforced Plastics,5 Stewart Rd  Currumbin,Queensland ,4223,Australia
Byron Surf Shop,Cnr Lawson &amp; Fletcher St  Byron Bay,New South Wales ,2481,Australia
Cabarita Surf Shop,1/38 Coast Rd  Cabarita Beach,New South Wales ,2488,Australia
Cape Hideaway Surf Shop,3c Kennnedy Street  Exmouth,Western Australia ,6707,Australia
Carabine Surf Designs,36 Flinders St  Wollongong,New South Wales ,2500,Australia
City Beach,Shop 173 Rockingham Shopping Centre 1 Council Avenue   Rockingham,Western Australia ,6168,Australia
City Beach - Rockingham Shopping Centre,173/1 Council Ave  Rockingham,Western Australia ,6168,Australia
City Surf,130 Mc Douall Stuart Ave  Whyalla,South Australia ,5600,Australia
Clearwater Surfboards,Shop 5 11 Palermo Cove  Secret Harbour,Western Australia  ,6173,Australia
Coastal Curves Surf,42 Bowra St  Nambucca Heads,New South Wales ,2448,Australia
Compound Surf Espresso,Shop 23B/ 15 Heathfield Rd   Coolum Beach,Queensland ,4575,Australia
Coolum Surf,8-26 Birtwill St,Coolum,4572,Australia
Cooly Surf,Cnr Dutton St &amp; Marine Pde  Coolangatta,Queensland  ,4225,Australia
Coopers Surf Australia,3/12 Lawson Cres  Coffs Harbour,New South Wales ,2450,Australia
Copper Coast Surf,52 Graves St  Kadina,South Australia ,5554,Australia
Core Surf &amp; Skate,152 Waterford Dr  Hillarys,Western Australia ,6025,Australia
Corner Surf Shop,103 Marine Tce   Geraldton,Western Australia ,6530,Australia
Crescent Head Surf Co,1 Crescent Head Tavern St  Crescent Head,New South Wales ,2440,Australia
Cronulla Original Surf Company,71/73 Cronulla Street  Cronulla,New South Wales  ,2230,Australia
Cronulla Surfing Academy,2 Marine Esplanade   Cronulla,New South Wales  ,2230,Australia
Culburra Beach  &amp; Board Hire,164 Penquin Heads Rd  CulburraBeach,New South Wales ,2540,Australia
Cutting Edge Composites,Factory 3/ 40 Dover Drv  WestBurleigh,Queensland ,4219,Australia
Daktari,197 Grey St  Hamilton,Victoria  ,3300,Australia
Davids Menswear,230 Raymond St  Sale,Victoria  ,3850,Australia
Deep Water Surf Co,Shop 306 West St  Umina,New South Wales  ,2257,Australia
Desert Wave Surf Shop,Shop 4a Alice Plaza,Shopng Cntr  Alice Springs,870,Australia
Detroit Clothing,83-85 Ferguson Street  Williamstown,Victoria ,3016,Australia
Double C Jeanery,2 Aviation Road  Laverton,Victoria  ,3028,Australia
Doug Watson's Mens &amp; Boys Wear,24 Liverpool St  Port Lincoln,South Australia ,5606,Australia
DP Surfboards,5/316 Aroo Road  Ulladulla,New South Wales  ,2539,Australia
Dripping Wet Surf Co,Shop 293 - 95 North Steyne  Manly,New South Wales ,2095,Australia
East Coast,226 Balnarring Rd  Merricks North,Victoria ,3926,Australia
East End Skate and Surf,34 King St  Newcastle,New South Wales ,2300,Australia
East Lines Surf Shop,28 Cecilia St  St Helens,Tasmania ,7216,Australia
Edithburgh Surf and Tackle,28 Blanche St,&nbsp;  Edithburgh,5583,Australia
Elderidge Earle,68a Fire Brace Street  Horsham,Victoria  ,3400,Australia
Empire Street and Surf,Shop 52 Central Lavington  Lavington,New South Wales  ,2644,Australia
Evidence,Shop 15 Singleton Plaza,John St  Singleton,2331,Australia
Evolution Surf,3/236 Naturaliste Terrace  Dunsborough,Western Australia ,6281,Australia
Extreme Surf Street &amp; Snow,1/118 Jetty Road  Glenelg,South Australia ,5045,Australia
Extremity Street &amp; Surf,225 Barker Street  Castlemaine,Victoria  ,3450,Australia
Finbox Boardstore,Shop 1/269 Lawrence Hargrave Drive,Thirroul,2515,Australia
Fine Cut Surf,Millicent Rd  Beachport,South Australia ,5280,Australia
Floor Boards Australia,68 Sunshine St  ManlyVale,New South Wales ,2093,Australia
Flynn's Inland &amp; Surf,41 Mury St  Wangaratta,Victoria ,3677,Australia
Forestfield Surf &amp; Sport Pty Ltd,Shop 24b Forrestfield Forum 20 Strelitzia Ave,Forrestfield,6058,Australia
Foster Surf &amp; Sport,42 Wharf St  Forster,New South Wales ,2428,Australia
Frantik Surf,43 Attfield St,Maddington,6109,Australia
Freetime Surf &amp; Sports,1792 David Low Way  CoolumBeach,Queensland ,4573,Australia
Freetime Surf N Sports,1/183 The Esplanade  CoolumBeach,Queensland ,4573,Australia
Full Circle Surf Design,115 Marine Pde  San Remo,Victoria ,3925,Australia
Gazza's,220 Hoskin Street  Temora,New South Wales  ,2666,Australia
Geffro's,Shop 491/492 Castle Tower  Castle Hill,New South Wales ,2159,Australia
General Pants Co,155 Pacific Fair Shpng Cntr  Broadbeach,Queensland ,4218,Australia
General Surf Co,169 Kelly St   Scone,New South Wales ,2337,Australia
George Gooley,118 Molesworth St  Lismore,New South Wales  ,2480,Australia
Gibbons Surf Ski's &amp; Boards,Unit 4 / 3 Villiers Drv  CurrumbinWaters,Queensland ,4223,Australia
Golders,106 Cunningham Street   Dalby,Queensland ,4405,Australia
Gone Surfing Secret Harbour  &amp; Board Hire,17 Mileura St  Golden Bay,Western Australia ,6174,Australia
Goodtime Trading Co,29 Ipswich Rd,Woolloongabba,4102,Australia
Goolwa Surf &amp; Ski,10C Cadell St  Goolwa,South Australia ,5214,Australia
Graffiti Surf Designs,43 Donald Street  Nelson Bay,New South Wales  ,2315,Australia
Gromz Pacific Prizm Surf Shops,Shop 5 319 Laurence Hargreave Dve  Thirroul,New South Wales ,2515,Australia
Groove Surf,Shop 3 / 63 West Burleigh Road &nbsp;  Burleigh Heads &nbsp;,Queensland &nbsp; ,4220,Australia
Gunna's Surf and Sport,71 Percy Street  Portland,Victoria  ,3305,Australia
Hart Mensland,23 Giblett St  Manjimup,Western Australia ,6258,Australia
High Tide Surf,139 High Rd  Willetton,Western Australia ,6155,Australia
High Tide Surf Shop,139 High Road  Willeton,Western Australia ,6155,Australia
Hillzeez,65 Queen Street  Bussleton,Western Australia ,6280,Australia
Hillzeez Down South Surf Shop,18 Prinsep St  Bunbury,Western Australia ,6230,Australia
Hodgys Surf Centre,143 Great Ocean Rd  ApolloBay,Victoria ,3233,Australia
Hot Shot Jeans,27 Tarawa St  Kawana Island,Queensland  ,4575,Australia
Hughes Surf Craft,85 Great Ocean Road  AiriesInlet,Victoria  ,3221,Australia
Hydroilic,1c Baines Cres, Torquay,3228,Australia
Iguana Surfwear,195 Victoria St  Taree,New South Wales ,2430,Australia
Indianic Surf Shop,Thompson Bay  Rottnest,Western Australia  ,6161,Australia
Infinity Surf Shop,87 Junction St  Nowra,New South Wales ,2541,Australia
Inland Surf,23 Moore Street  Moe,Victoria  ,3825,Australia
Inland Surf &amp; Denim,40 Gawler St  Mt Barker,South Australia ,5251,Australia
Inland Surf Warragul,58 Smith Street  Warragul,Victoria  ,3820,Australia
Inn Style Mensland,23 Electra St  Bundaberg,Queensland ,4670,Australia
Innervision Surf Shop,80 William Street   Port Macquarie,New South Wales ,2444,Australia
Inside Surf,Shop G 29-30 The Oasis Shopping Centre Victoria Av  Broadbeach,Queensland  ,4218,Australia
Intersport Hobart,Shop 204 Centre Point  Hobart,Tasmania ,7000,Australia
Island Aclassic Surf &amp; Snow,32- 34 Station St  Engadine,New South Wales ,2233,Australia
Island Surfboards,147 Thompson Ave  Cowes,Victoria ,3992,Australia
Islantis,10-12 illip Island Rd  Newhaven,Victoria ,3925,Australia
Jabu Surfwear,13 Normanby St,Yeppon,4703,Australia
Jellco P/L,56 Wilson St Horsham P.O Box 820  Horsham,Victoria  ,3402,Australia
Jesse's,195-197 Maude Street  Shepparton,Victoria  ,3630,Australia
Jetty Surf,Shop U35/41 Eastland Shopping Centre   Rosny,Tasmania ,7018,Australia
Jetty Surf/Billabong Store,Shop 6,Surfcoast Plaza,3228,Australia
JR's Myer Center,2-22 Myer Center  Adelaide,South Australia ,5000,Australia
JR's Surf Shop Grenfell St,121 Grenfell St  Adelaide,South Australia ,5000,Australia
JR's Surf Shop Marion,Shop 224 Westfield Marion  Oaklands Park,South Australia ,5046,Australia
Judds Menswear,97 Mury Street  Wangaratta,Victoria  ,3677,Australia
Jungle Surf,4/25 Manning St  Tuncurry,New South Wales ,2428,Australia
Kaceys,87 Lorne Street  Junee,New South Wales  ,2663,Australia
Kalbarri Surf Shop,42 Grey Street Kalbarri Lane  Kalbarri,Western Australia ,6536,Australia
KAOS Surf,Salamander Shopping Centre,Salamander Bay,2317,Australia
Kaos Surf,2 Town Cicuit Shop 66 Salamander Centre  SalamanderBay,New South Wales ,2317,Australia
Kaos Surf and Skate,Shop 17 Kardinya Park Shopping Centre South St  Kardinya,Western Australia ,6163,Australia
Kidds Jim Morley,129 Russell Street  Morley,Western Australia ,6062,Australia
Kilani Surf Co,35 Bellevue St  Shelly Beach,New South Wales ,2261,Australia
Kinetic Kovers,7 Redfern Pde  DeeWhy,New South Wales ,2099,Australia
King. Ronald,122 Main Street  Croydon,Victoria ,3136,Australia
Kirra Surf,Gold Coast Hwy  Kirra,Queensland ,4225,Australia
Kite Haven,46 Cardigan Pde  Manly,Queensland ,4179,Australia
Kite Power Australia,302 The Grand Pde  SansSouci,New South Wales ,2219,Australia
Kulin HardWare,Lot 2/3 Johnston Street  Kulin,Western Australia  ,6365,Australia
Labten,4 Hesse Street  Queenscliff,Victoria  ,3225,Australia
Lame Boardstore,1/788 Pacific Pde  Currumbin,Queensland ,4223,Australia
Lancelin Surf Sports,Shop 3/127 Gingin Rd  Lancelin,Western Australia ,6044,Australia
Larrups,Neds Beach Rd  Lord Howe Island,New South Wales  ,2898,Australia
Last Wave Watersports,16 Goondoon St  Gladstone,Queensland ,4680,Australia
Lennox Head Surf Shop,71 Ballina St  Lennox Head,New South Wales ,2478,Australia
Les Reicha,74 High Street   Terang,Victoria  ,3264,Australia
Lincoln Surf,7-11 Lewis St  Port Lincoln,South Australia ,5606,Australia
Little's Surf Centres,Shop 83 Lakehaven Shoppng Cntr  Gorokan,New South Wales ,2263,Australia
Littles Surf Centre,Unit 092,Bay Square  Bateau Bay,2261,Australia
Local Knowledge,2251 Gold Coast Highway  Nobby Beach,Queensland ,4218,Australia
Long Reef Surf,1012 Pittwater Road  Collaroy,New South Wales  ,2097,Australia
Loose Change Imports Pty Ltd,5 Carrington St   Bulli,New South Wales  ,2516,Australia
Lorne Surf Shop,130 Mountjoy Pde  Lorne,Victoria ,3232,Australia
Low Pressure Surf Co,68 Prince St  Grafton,New South Wales ,2460,Australia
Loxton Mensland,10 East Terrace   Loxton,South Australia ,5333,Australia
Maddison Shapes &amp; Designs,16 Oak Ave  Miami,Queensland ,4220,Australia
Maddog,83 River St  Ballina,New South Wales  ,2478,Australia
Mandurah Surf Company,Shop 1a Smart Street Mall  Mandurah,Western Australia ,6210,Australia
Mark Anthony's Clothing Company,148- 150 Imlay St  Eden,New South Wales ,2551,Australia
Matches Surf Co,235 Main St   Lilydale,Victoria  ,3140,Australia
Mc Quarrie Surf Boards,3 Churchill St  WilliamstownNorth,Victoria ,3016,Australia
MC Surf Designs,3 Banksia Drive Byron Bay Industrial Estate   Byron Bay,New South Wales ,2481,Australia
Men Do Clothing,Shop 16 Centrepoint Plaza,Bowen,4805,Australia
Menthas Of Cobram,39-41 Bank St  Cobram,Victoria  ,3644,Australia
Merimbula Surf Shop,4 Merimbula Drv  Merimbula,New South Wales ,2548,Australia
Moses Australia,Stockland Baldivis Shopping Centre,Safety Bay Rd  Baldivis,6171,Australia
Mt Woodgee Surfboards Pty Ltd,2 Stewart St  Currumbin,Queensland ,4223,Australia
Mt Woodgee=Surfboards Burleigh Heads,1730 Gold Coast Hwy,Burleigh Heads,4220,Australia
Murray Smith Surf Warehouse,3/298 Selby St, Osborne Park,6017,Australia
Muwupa Pty Ltd,17 Yewens Crt  Camden,New South Wales  ,2570,Australia
MV2,36 Beach Rd  Christies Beach,South Australia ,5165,Australia
Natural Necessity,115 Fern St  Gerringong,New South Wales ,2534,Australia
New Wave Surf &amp; Street,9 Alexander St  Port Pirie,South Australia ,5540,Australia
Nitsua Surfboard Company,Unit 6/ 170 Beechboro Rd  BaysWater,Western Australia ,6053,Australia
Nu-Scene,204- 210 Raymond St  Sale,Victoria ,3850,Australia
Oakley O Store,Shop 7 Surf City PlazaSurfcoast Hwy  Torquay,Victoria ,3228,Australia
OceanStyle LongBoards,229B Queen VICtoria St  North Fremantle,Western Australia ,6159,Australia
Offshore Surf,Mitcham Shopping Centre 119 Belair Rd  TorrensPark,South Australia ,5062,Australia
Offshore Surf Shop,68 Vulcan Street  Moruya,New South Wales  ,2537,Australia
Offshore Surf Shop,192-194 Murray Street  Colac,Victoria  ,3250,Australia
One Zach Benalla,59 Bridge Street  Benalla,Victoria  ,3672,Australia
One Zach Yarrawonga,Shop 3/59-63 Belmore Street  Yarrawonga,Victoria  ,3730,Australia
Out There Outdoor Activities,930 illip Island Tourist   Newhaven,Victoria ,3925,Australia
Outereef Surfboards Australia,73 illip Island Rd  San Remo,Victoria ,3925,Australia
Ozmosis,57-59 Ocean Beach Road   Sorrento,Victoria  ,3943,Australia
P.S.C Skateboarding,Shop 1125 Highpoint Shopping Centre   Maribyrnong,Victoria ,3032,Australia
Pacific Dreams,7 Darby Street  Newcastle,New South Wales  ,2302,Australia
Pacific Prizm Boardstore,SHOP 1 10 BLAXLAND ROAD  Cambelltown,New South Wales  ,2560,Australia
Passport Surf,85 Rooke Mall  Devonport,Tasmania ,7310,Australia
PD Sport &amp; leisure,49 Carramarr Rd  Castle Hill,New South Wales ,2154,Australia
Pirate Point Surf,63 Mitchell St  Stockton,New South Wales ,2295,Australia
Planet Surf,111 Charles St  Launceston,Tasmania ,7250,Australia
Planet Surf Head Office,3/5 Jellico Drive  Scoresby,Victoria  ,3176,Australia
Planet X,78a Langtree Avenue  Mildura,Victoria  ,3500,Australia
Port Macquarie,1 Middle Rock Rd  LakeCathie,New South Wales ,2445,Australia
Powerlinez Surf Shop,16a Waterloo St  Narrabeen,New South Wales ,2101,Australia
Preece's South Port Surf and Skate,159 Esplanade   Port Noarlunga South,South Australia ,5167,Australia
Premier Sports Centre Pty Ltd,Shop 13/Westland Shopping Cent Nicholson Ave  Whyalla Norrie,South Australia ,5608,Australia
Primary Clothing Company,26 Loftus Pl   Forster,New South Wales ,2428,Australia
Primitive Surf,601 Nudgee Rd, Nundah,4012,Australia
Quarryman Surf,149 Argyle St  Picton,New South Wales ,2571,Australia
Quiksilver,178 The Arcade Pacific Fair Shopping Centre  Broadbeach,Queensland  ,4218,Australia
Quiksilver Store,Shp 1/ 56 Dunn Bay Rd, Dunsborough,6281,Australia
Quiksilver Store,100 Geelong Rd Surfcoast Plaza,Torquay,3228,Australia
RAM,Market Place   Raymond Terrace,New South Wales ,2324,Australia
Rapid Surf &amp; Ski,180 Main North Rd   Prospect,South Australia  ,5082,Australia
Rasta's Surf Co,51 Hitchcock Ave  Barwon Heads,Victoria ,3227,Australia
Red Herring Surf,127 Charles St  Launceston,Tasmania ,7250,Australia
Red Sun,Shop 5,Kununurra Shopping Centre  Kununurra,6743,Australia
Redbill Surf Shop,24a Channel Crt  Kingston,Tasmania ,7050,Australia
Reef 2 Beach Surf Shop,Shop 1 Agnes Waters Shopping Centre   Agnes Waters,Queensland ,4677,Australia
Rhythm,8 Sharp Street  Cooma,New South Wales ,2630,Australia
Rider Plus,105 Upper Heidelberg Rd,Ivanhoe,3079,Australia
Rip Curl,107 Abbott Street  Cairns,Queensland  ,4870,Australia
Rip Curl Airlie Beach,5-287 Shute Harbour  Airlie Beach,Queensland  ,4802,Australia
Rip Curl Manly,98-100 The Corso  Manly,New South Wales  ,2095,Australia
Rip Curl Scarbourough,Shop 14 Luna Maxi Mart,Westcoast Hwy  Scarboorough,6079,Australia
Rip Curl Shop Tullamarine,Shop 11 1st Floor Sky Plaza,International Terminal  MelbourneAirport,3045,Australia
Rip Curl Surf Shop,101 Geelong Road  Torquay,Victoria  ,3228,Australia
Robertsons,39 Grave St   Kadina,South Australia ,5554,Australia
Roxy Store,Surf City Plaza  Torquay,Victoria ,3228,Australia
Rush Gladstone,1 Harvey St,&nbsp;  Gladstone,4680,Australia
Rush Lifestyles Australia Pty Ltd,Shop 30 Centro Shop. Centre,Pialba  HerveyBay,4655,Australia
Safari Surf Crafts &amp; Fiberglass Repairs,20 Consett Ave  Bondi Beach,New South Wales ,2026,Australia
Sails &amp; Windsurfing Centre,U15/ 30 Peel Rd  O'Connor,Western Australia ,6163,Australia
Salt Water City,74 Emmett St  Smithton,Tasmania ,7330,Australia
Saltbush,4 Church St  Pt Augusta,South Australia ,5700,Australia
Saltbush Surf &amp; Leisure,4 Church St  Port Augusta,South Australia ,5700,Australia
Saltwater Wine Surf Centres,107 Horton Street  Port Macquarie,New South Wales ,2444,Australia
Salty's Surf N Skate,295 Hannan Street  Kalgoorlie,Western Australia ,6433,Australia
Sam's Place,26 Victoria St,Robe,5276,Australia
Sanbah,Shop 27 The Junction Fair  204 Union St, The Junction,2291,Australia
Sand Bar Surf,531 The Esplanade  Lakes Entrance,Victoria ,3909,Australia
Scamander Beach Surf Shop,6 Lagoon Esp   Scamander,Tasmania ,7215,Australia
SDS Belconnen,Shop 313 &amp; 314,Westfield Shopping Town  Benjamin,2617,Australia
SDS Brookvale,Shop 517 Warringah Mall  Brookvale,New South Wales ,2100,Australia
SDS Cairns,Shop T80-T82,Cairns Shopping Centre  Cairns,4870,Australia
SDS Canberra City,Shop CG24-27 148 Civic S/C 148 Bunda Street  Canberra,Australian Capital Territory ,2600,Australia
SDS Chatswood,Shop 310 - 313,Westfield Chatswood  Chatswood,2067,Australia
SDS Darling Harbour,Shop 205 Darling Harbour  Sydney,New South Wales ,2000,Australia
SDS Pagewood,Shop 330 – 331,Westfield  Eastgardens,2036,Australia
SDS Parramatta,Shop 4004,Westfield  Parramatta,2123,Australia
SDS Wollongong,Shop 29 - 30 Wollongong Central  Wollongong,New South Wales  ,2500,Australia
Sea Breeze Surf,Cnr Rae &amp; Safetybay Rds  Safetybay,Western Australia ,6169,Australia
Seabreeze Sailboards,Corner Rae @ Safety Bay Roads  Safety Bay,Western Australia ,6169,Australia
Seabreeze Surf Shop,Cnr Rae and Safetybay Rds   Safety Bay,Western Australia ,6169,Australia
Serious Surf Stuff,1 Williams St  Inverloch,Victoria  ,3953,Australia
Sessions Surf Shop,Shop 1105 Bussell Hwy  Margaret River,Western Australia ,6285,Australia
Sharkys,Lorne Cumberland Resort Shop 12 Mt Joy Pde,Lorne,3232,Australia
SHQ Boardsports,81 Beach Rd  Sandringham,Victoria ,3191,Australia
Sideways,1-2/16 Central Park Ave,Ashmore,4214,Australia
Sixty Nine,Shop 3 46-54 River St  Ballina,New South Wales  ,2478,Australia
Ski Surf &amp; Snow,1/138 George St  Rockhampton,Queensland ,4700,Australia
Skiers Edge Albury,471 Dean St  Albury,New South Wales  ,2640,Australia
Skigia &amp; Surf,123 Elizabeth St  Hobart,Tasmania ,7000,Australia
Skin  Ski &amp; Surf Sunbury,93 Evans St  Sunbury,Victoria ,3429,Australia
Skin Ski &amp; Surf,320- 322 Flinders Mall  Townsville,Queensland ,4810,Australia
Slime Surf + Skate,Shop 47t Erina Fair Shopping Cntr  Erina,New South Wales  ,2250,Australia
Snow Sport Mountain Clothing,C/- Mowamba Place  Thredbro,New South Wales  ,2625,Australia
South Shore Foam Blanks,577 Princes Hwy  Kirrawee,New South Wales ,2232,Australia
Southern Man,138 Princes Hwy,Ulladulla,2539,Australia
Southern Sailboards,6 Senator St,Mt Stuart  Hobart,7019,Australia
Southern Surf,36 North Terrace  Port Elliot,South Australia ,5212,Australia
Sports Power,Shop 1 Bay CentralNorth St  Batemans Bay,New South Wales ,2536,Australia
Sportspower Leongatha,35-37 Mc Cartin St  Leongatha,Victoria  ,3953,Australia
Sportz Look,29 Rankin St  Innisvail,Queensland ,4860,Australia
St Moritz Ski &amp; Surf,426 Oxford St  Bondi Junction,New South Wales ,2022,Australia
Star Surf &amp; Skate,20 Mandurah Terrace,WA   Mandurah,6210,Australia
Star Surf &amp; Skate Hillarys,Shop 208,Sorrento Quay,6020,Australia
Star Surf &amp; Skate Mandurah,Shop 6, Mandurah Terrace  Mandurah,6210,Australia
Star Surf + Skate,20 Mandurah Terrace  Mandurah,Western Australia  ,6210,Australia
Steves Place,Victoria Street  Robe,South Australia ,5276,Australia
Stewart Bob Menswear,203-207 High Street  Kew,Victoria  ,3101,Australia
Straddie Shapes &amp; Surfwear,Mooloomba Rd  Point Lookout,Queensland ,4183,Australia
Strapper,67 The Terrace  Ocean Grove,Victoria  ,3226,Australia
Strapper,106 Surfcoast Hwy  Torquay,Victoria ,3228,Australia
Strapper Factory Outlet,96 Surf Coast Hwy  Torquay,Victoria ,3228,Australia
Street ‘N’ Beach,Shop 30 Centro Shopping Centre  Pialba,Queensland  ,4655,Australia
Suburban Surf,224 Nicklin Way,Cnr Waterview St   Warana,4575,Australia
Sunshine Surfing,89 PittWater Rd  Manly,New South Wales ,2095,Australia
Surf Boardroom - Scarborough,Sh 3 Ocean Plaza, Scarborough Beach Rd  Scarborough,6019,Australia
Surf Clothing Co,Westfield Shoppingtown   Strathpine,Queensland ,4500,Australia
Surf Crew,61Langtree Mall  Mildura,Victoria  ,3500,Australia
Surf Culture,20 Bronte Rd  Bondi Junction,New South Wales ,2022,Australia
Surf Dive n Ski Tannum Sands,Tannum Sands Shopping Centre, Corner Booth Avenue  Tannum Sands,4680,Australia
Surf Factory The,16 Maitland Rd  Islington,New South Wales ,2296,Australia
Surf FX,127 Ferry Rd  Southport,Queensland ,4215,Australia
Surf House The,72 Molesworth St  Lismore,New South Wales ,2480,Australia
Surf Mania,Shop 1/ 7 RailWay Tce   Rockingham,Western Australia ,6168,Australia
Surf N Skate,156 Allen Street  Kyabram,Victoria  ,3620,Australia
Surf Sports Underground,17a Plaza,Arcade  Perth,6000,Australia
Surf Style NF,P.O. Box 608  Norfolk Island,New South Wales  ,2899,Australia
Surf Where,300 Main North Road  Clare,South Australia  ,5453,Australia
Surf-N-Fish,73 Great Ocean Road  ApolloBay,Victoria  ,3233,Australia
Surfection,Shop 7 Warriewood Shopping Centre Jacksons Rd  Warriewood,New South Wales ,2102,Australia
Surfer's Choice,473 The Entrance Road  LongJetty,New South Wales  ,2262,Australia
SurferHer Girl,Shop T355 Erina Fair   Erina,New South Wales ,2250,Australia
Surfers Choice,473 The Entrance Rd  LongJetty,New South Wales ,2261,Australia
Surfin Systems Pty Ltd,40 Queens Ave  Avalon Beach,New South Wales ,2107,Australia
SurfJunction,Shop 4 / 11 Clifton Springs Road  Drysdale,Victoria,3222,Australia
Surfpit,100 Railway St  Corrimal,New South Wales ,2518,Australia
Swerve Surf &amp; Ski,91 Queen St  Ayr,Queensland  ,4807,Australia
Switch International,Shop 31 West End PlazaKieWa St  Albury,New South Wales ,2640,Australia
The Beach Hut,5 Macquarie Crt  George Town,Tasmania ,7253,Australia
The Green Room,The Terrace   Ocean Grove,Victoria ,3226,Australia
The Hutt,125 Parramatta Road  Homebush,New South Wales  ,2140,Australia
The Plank Shop,10 Clarence St  Yamba,New South Wales ,2464,Australia
The Spot For Surf,44 Commercial St  Mt Gambier,South Australia ,5290,Australia
The Surf Boardroom,Shop 22 Ocean Plz   Scarborough,Western Australia ,6019,Australia
The Surf Co.,136 Koroit St  Warrnambool,Victoria  ,3280,Australia
The Surf Shack,507 The Esplanade  Lakes Entrance,Victoria ,3909,Australia
The Surf Shop,15 Albert Place  Victor Harbour,South Australia ,5211,Australia
Tige's Surf Shop,26 Bashford St  Jurien,Western Australia ,6516,Australia
Tom Moren,1 William St  Inverloch,Victoria ,3996,Australia
Torquay Surf,Shop 3/108 Surf Coast Hwy, Torquay,3228,Australia
Total Surf,59a Bridge St  Murray Bridge,South Australia ,5253,Australia
Totally Board Surf,14 Mckenzie St, Ceduna,5690,Australia
Town &amp; Country Hawaii Surfboards,Unit 4 260 West Coast Hwy  Scarborough,Western Australia ,6019,Australia
Trafalgar Menswear,16 Contingent Street  Trafalgar,Victoria ,3824,Australia
Trigger Bros  Frankston,7 Ross-Smith Ave,Frankston,3199,Australia
Trigger Bros Surfboards,46 Ocean Beach Rd  Sorrento,Victoria  ,3943,Australia
Trigger Bros Surfboards,Point Leo Rd  Point Leo,Victoria ,3916,Australia
Trigger Surf Skate Snow,7 Rossmith Ave  Frankston,Victoria ,3199,Australia
Triple Bull,23 The Kings Way   Cronulla,New South Wales ,2230,Australia
Unique Surf Skate &amp; Leisure,132a Main St  Bairnsdale,Victoria ,3875,Australia
Universal Store,Carindale Shopping Centre   Carindale,Queensland ,4152,Australia
Unplugged Byron,Shop 1-2 Lawson St, Byron Bay,2481,Australia
Urban Beach,Orana Mall, Windsor Parade,2830,Australia
Urban Wave Surf &amp; Skate,11 Gregory St  Mackay,Queensland ,4740,Australia
Va Fashions,5 Papuana St  Kununurra,Western Australia ,6743,Australia
Wallbridge Surfboards,Crn Esplande,Repton Rd,4045,Australia
Walters Of Kingston,21 CHARLES STREET  KINGSTON S.E.,South Australia ,5275,Australia
Watersports - Surf-Skate-Ski,3377 Pacific Hwy  Springwood,Queensland ,4127,Australia
Wave Creations,31 Rowlins Rd  Gerringong,New South Wales ,2534,Australia
Wave Master,46- 48 Broadmeadow Rd  Broadmeadow,New South Wales ,2292,Australia
Wave Wear,15 Livingstone St  South West Rocks,New South Wales ,2431,Australia
Wayne Ritchie's Skiers Edge,466 Dean St  Albury,New South Wales ,2640,Australia
Wayne Ritchies Frankston,417 Nepean Hwy  Frankston,Victoria  ,3199,Australia
Wayne Ritchies Shepparton,79 High St.  Shepparton,Victoria  ,3630,Australia
Wedge Island Surf Co.,49 Amherst St  Fremantle,Western Australia ,6160,Australia
Weir's Inside Edge,14 Memorial Ave  CottonTree,Queensland ,4558,Australia
Wick's Surf Shop,1103 PittWater Road  Collaroy,New South Wales  ,2097,Australia
Wilderness Sea N' Ski,137 George St  Liverpool,New South Wales ,2170,Australia
Wimmera Outdoors,56 Wilson St  Horsham,Victoria ,3400,Australia
Wipepout Surf &amp; Skate,Shop 3/28 Duke St  Sunshine Beach,Queensland ,4567,Australia
XS Surf,76 Beach St,Woolgoolga,2456,Australia
Xshore,279 Dundas St  Rye,Victoria ,3941,Australia
Yahoo Surfboards,2/222 Naturaliste Terrace,Dunsborough,6281,Australia
Yallingup Surf Company,2/16 Griffin Dr  Dunsborough,Western Australia ,6281,Australia
Yamba Surf,1/ 16 Coldstream St  Yamba,New South Wales ,2464,Australia
Zak Surfboards,307 Victoria Road     Thornbury,Victoria ,3071,Australia
Zink,136 Terrralong St  Kiama,New South Wales ,2553,Australia
